NORAD_CAT_ID,OBJECT_NAME,OBJECT_TYPE,EPOCH,MEAN_MOTION,ECCENTRICITY,INCLINATION,RA_OF_ASC_NODE,ARG_OF_PERICENTER,MEAN_ANOMALY,BSTAR,MEAN_MOTION_DOT,MEAN_MOTION_DDOT,TLE_LINE0,TLE_LINE1,TLE_LINE2,SEMIMAJOR_AXIS,PERIOD,APOGEE,PERIGEE,DECAYED
53852.0,STARLINK-4797,PAYLOAD,2024-06-19 12:58:42,15.08835769,0.0001057,53.2162,228.9265,98.9001,261.2111,0.00011682,1.572e-05,0.0,0 STARLINK-4797,1 53852U 22114AL  24171.54076452  .00001572  00000-0  11682-3 0  9997,2 53852  53.2162 228.9265 0001057  98.9001 261.2111 15.08835769 97673,6917.893,95.438,540.49,539.027,0.0
53852.0,STARLINK-4797,PAYLOAD,2024-06-20 12:49:28,15.0884674,0.000102,53.2156,224.4649,86.0293,274.0815,0.00012354,1.679e-05,0.0,0 STARLINK-4797,1 53852U 22114AL  24172.53435895  .00001679  00000-0  12354-3 0  9992,2 53852  53.2156 224.4649 0001020  86.0293 274.0815 15.08846740 98365,6917.86,95.437,540.43,539.019,0.0
53852.0,STARLINK-4797,PAYLOAD,2024-06-20 20:46:24,15.08844746,9.42e-05,53.2152,222.9736,79.4868,280.623,-2.9321e-05,-7.54e-06,0.0,0 STARLINK-4797,1 53852U 22114AL  24172.86556207 -.00000754  00000-0 -29321-4 0  9997,2 53852  53.2152 222.9736 0000942  79.4868 280.6230 15.08844746 97870,6917.866,95.437,540.383,539.079,0.0
53852.0,STARLINK-4797,PAYLOAD,2024-06-21 03:07:57,15.08835788,9.6e-05,53.2151,221.7851,86.3896,273.7206,5.6737e-05,6.15e-06,0.0,0 STARLINK-4797,1 53852U 22114AL  24173.13052673  .00000615  00000-0  56737-4 0  9991,2 53852  53.2151 221.7851 0000960  86.3896 273.7206 15.08835788 97919,6917.893,95.438,540.422,539.094,0.0
53852.0,STARLINK-4797,PAYLOAD,2024-06-21 09:29:29,15.08840768,0.0001008,53.215,220.5967,88.4915,271.6193,4.483e-05,4.26e-06,0.0,0 STARLINK-4797,1 53852U 22114AL  24173.39548434  .00000426  00000-0  44830-4 0  9995,2 53852  53.2150 220.5967 0001008  88.4915 271.6193 15.08840768 98492,6917.878,95.438,540.44,539.046,0.0
53852.0,STARLINK-4797,PAYLOAD,2024-06-22 12:31:02,15.08843931,0.0001017,53.2152,215.5419,84.3242,275.7866,2.6442e-05,1.33e-06,0.0,0 STARLINK-4797,1 53852U 22114AL  24174.52156231  .00000133  00000-0  26442-4 0  9995,2 53852  53.2152 215.5419 0001017  84.3242 275.7866 15.08843931 98125,6917.868,95.437,540.437,539.03,0.0
53852.0,STARLINK-4797,PAYLOAD,2024-06-23 09:11:03,15.08839247,0.0001158,53.2162,211.6767,91.1394,268.973,4.5223e-05,4.32e-06,0.0,0 STARLINK-4797,1 53852U 22114AL  24175.38268495  .00000432  00000-0  45223-4 0  9996,2 53852  53.2162 211.6767 0001158  91.1394 268.9730 15.08839247 98252,6917.883,95.438,540.549,538.947,0.0
53852.0,STARLINK-4797,PAYLOAD,2024-06-24 09:01:50,15.08842141,0.0001137,53.2161,207.2154,90.4993,269.6129,6.4064e-05,7.32e-06,0.0,0 STARLINK-4797,1 53852U 22114AL  24176.37628204  .00000732  00000-0  64064-4 0  9991,2 53852  53.2161 207.2154 0001137  90.4993 269.6129 15.08842141 98949,6917.874,95.437,540.525,538.952,0.0
53852.0,STARLINK-4797,PAYLOAD,2024-06-25 05:41:52,15.08835855,0.0001189,53.2165,203.352,88.6115,271.5014,2.0372e-05,3.6e-07,0.0,0 STARLINK-4797,1 53852U 22114AL  24177.23740845  .00000036  00000-0  20372-4 0  9994,2 53852  53.2165 203.3520 0001189  88.6115 271.5014 15.08835855 98533,6917.893,95.438,540.581,538.936,0.0
53852.0,STARLINK-4797,PAYLOAD,2024-06-25 07:17:15,15.08835025,0.0001177,53.2163,203.0544,90.5922,269.5205,1.1657e-05,-1.02e-06,0.0,0 STARLINK-4797,1 53852U 22114AL  24177.30364926 -.00000102  00000-0  11657-4 0  9995,2 53852  53.2163 203.0544 0001177  90.5922 269.5205 15.08835025 99088,6917.896,95.438,540.575,538.946,0.0
53852.0,STARLINK-4797,PAYLOAD,2024-06-26 08:43:24,15.08843266,0.0001166,53.2156,198.297,91.3973,268.7153,5.9853e-05,6.65e-06,0.0,0 STARLINK-4797,1 53852U 22114AL  24178.36348323  .00000665  00000-0  59853-4 0  9998,2 53852  53.2156 198.2970 0001166  91.3973 268.7153 15.08843266 98708,6917.87,95.437,540.542,538.929,0.0
53852.0,STARLINK-4797,PAYLOAD,2024-06-27 08:34:12,15.08835578,0.0001238,53.2152,193.8329,69.1714,290.9411,3.5238e-05,2.73e-06,0.0,0 STARLINK-4797,1 53852U 22114AL  24179.35709183  .00000273  00000-0  35238-4 0  9999,2 53852  53.2152 193.8329 0001238  69.1714 290.9411 15.08835578 98856,6917.894,95.438,540.615,538.902,0.0
53852.0,STARLINK-4797,PAYLOAD,2024-06-27 18:06:31,15.08838149,0.0001089,53.2149,192.0516,86.6884,273.4232,5.6024e-05,6.04e-06,0.0,0 STARLINK-4797,1 53852U 22114AL  24179.75452995  .00000604  00000-0  56024-4 0  9993,2 53852  53.2149 192.0516 0001089  86.6884 273.4232 15.08838149 99458,6917.886,95.438,540.504,538.998,0.0
53852.0,STARLINK-4797,PAYLOAD,2024-06-28 05:14:13,15.08843317,0.000111,53.2148,189.9707,84.9256,275.1863,5.1611e-05,5.34e-06,0.0,0 STARLINK-4797,1 53852U 22114AL  24180.21820719  .00000534  00000-0  51611-4 0  9998,2 53852  53.2148 189.9707 0001110  84.9256 275.1863 15.08843317 98982,6917.87,95.437,540.503,538.967,0.0
53852.0,STARLINK-4797,PAYLOAD,2024-06-28 08:24:59,15.08844445,0.0001161,53.2151,189.3749,86.307,273.8055,7.3031e-05,8.75e-06,0.0,0 STARLINK-4797,1 53852U 22114AL  24180.35068557  .00000875  00000-0  73031-4 0  9995,2 53852  53.2151 189.3749 0001161  86.3070 273.8055 15.08844445 99546,6917.867,95.437,540.535,538.929,0.0
53852.0,STARLINK-4797,PAYLOAD,2024-06-29 09:51:08,15.08847634,0.0001101,53.2148,184.615,90.3257,269.7861,0.00013777,1.906e-05,0.0,0 STARLINK-4797,1 53852U 22114AL  24181.41052048  .00001906  00000-0  13777-3 0  9997,2 53852  53.2148 184.6150 0001101  90.3257 269.7861 15.08847634 99162,6917.857,95.437,540.484,538.96,0.0
53852.0,STARLINK-4797,PAYLOAD,2024-06-29 17:48:04,15.08842975,0.0001099,53.2145,183.1276,90.9056,269.2062,8.6365e-05,1.087e-05,0.0,0 STARLINK-4797,1 53852U 22114AL  24181.74172419  .00001087  00000-0  86365-4 0  9992,2 53852  53.2145 183.1276 0001099  90.9056 269.2062 15.08842975 99218,6917.871,95.437,540.497,538.976,0.0
53852.0,STARLINK-4797,PAYLOAD,2024-06-30 06:31:10,15.08837127,0.000127,53.215,180.7485,99.6175,260.4961,3.9397e-06,-2.25e-06,0.0,0 STARLINK-4797,1 53852U 22114AL  24182.27165023 -.00000225  00000-0  39397-5 0  9992,2 53852  53.2150 180.7485 0001270  99.6175 260.4961 15.08837127 99290,6917.889,95.438,540.633,538.876,0.0
53852.0,STARLINK-4797,PAYLOAD,2024-07-01 06:21:57,15.08839329,0.0001007,53.2156,176.2909,90.0569,270.0538,1.3606e-05,-7.1e-07,0.0,0 STARLINK-4797,1 53852U 22114AL  24183.26524997 -.00000071  00000-0  13606-4 0  9994,2 53852  53.2156 176.2909 0001007  90.0569 270.0538 15.08839329 99986,6917.882,95.438,540.444,539.051,0.0
53852.0,STARLINK-4797,PAYLOAD,2024-07-02 04:37:21,15.0883395,0.000116,53.2154,172.1273,95.346,264.7665,9.4666e-05,1.219e-05,0.0,0 STARLINK-4797,1 53852U 22114AL  24184.19261407  .00001219  00000-0  94666-4 0  9990,2 53852  53.2154 172.1273 0001160  95.3460 264.7665 15.08833950 99582,6917.899,95.438,540.566,538.961,0.0
53852.0,STARLINK-4797,PAYLOAD,2024-07-02 06:12:44,15.08834763,0.0001148,53.2154,171.8303,94.5112,265.6011,9.875e-05,1.284e-05,0.0,0 STARLINK-4797,1 53852U 22114AL  24184.25885382  .00001284  00000-0  98750-4 0  9991,2 53852  53.2154 171.8303 0001148  94.5112 265.6011 15.08834763100135,6917.896,95.438,540.556,538.967,0.0
53852.0,STARLINK-4797,PAYLOAD,2024-07-02 15:45:03,15.08836402,0.0001161,53.2155,170.0464,94.0332,266.0793,8.8842e-05,1.126e-05,0.0,0 STARLINK-4797,1 53852U 22114AL  24184.65629406  .00001126  00000-0  88842-4 0  9994,2 53852  53.2155 170.0464 0001161  94.0332 266.0793 15.08836402100199,6917.891,95.438,540.56,538.953,0.0
53852.0,STARLINK-4797,PAYLOAD,2024-07-03 07:38:54,15.08843032,0.0001215,53.2161,167.0732,94.5377,265.5754,0.00011415,1.529e-05,0.0,0 STARLINK-4797,1 53852U 22114AL  24185.31869009  .00001529  00000-0  11415-3 0  9991,2 53852  53.2161 167.0732 0001215  94.5377 265.5754 15.08843032 99751,6917.871,95.437,540.577,538.896,0.0
53852.0,STARLINK-4797,PAYLOAD,2024-07-03 15:35:50,15.08839622,0.0001216,53.2162,165.5862,93.1221,266.991,8.8176e-05,1.116e-05,0.0,0 STARLINK-4797,1 53852U 22114AL  24185.64989275  .00001116  00000-0  88176-4 0  9996,2 53852  53.2162 165.5862 0001216  93.1221 266.9910 15.08839622100340,6917.882,95.438,540.588,538.905,0.0
53852.0,STARLINK-4797,PAYLOAD,2024-07-04 04:18:56,15.08834216,0.0001277,53.2161,163.2077,93.2499,266.8639,2.3039e-05,7.9e-07,0.0,0 STARLINK-4797,1 53852U 22114AL  24186.17981907  .00000079  00000-0  23039-4 0  9993,2 53852  53.2161 163.2077 0001277  93.2499 266.8639 15.08834216 99884,6917.898,95.438,540.646,538.88,0.0
53852.0,STARLINK-4797,PAYLOAD,2024-07-04 07:29:42,15.08838735,0.0001325,53.2165,162.6135,94.905,265.2094,5.794e-05,6.34e-06,0.0,0 STARLINK-4797,1 53852U 22114AL  24186.31229537  .00000634  00000-0  57940-4 0  9998,2 53852  53.2165 162.6135 0001325  94.9050 265.2094 15.08838735100444,6917.884,95.438,540.666,538.833,0.0
53852.0,STARLINK-4797,PAYLOAD,2024-07-04 15:26:38,15.08837767,0.0001352,53.2167,161.1254,87.7431,272.3716,4.3501e-05,4.04e-06,0.0,0 STARLINK-4797,1 53852U 22114AL  24186.64349663  .00000404  00000-0  43501-4 0  9990,2 53852  53.2167 161.1254 0001352  87.7431 272.3716 15.08837767100494,6917.887,95.438,540.688,538.817,0.0
53852.0,STARLINK-4797,PAYLOAD,2024-07-05 04:09:43,15.08841374,0.0001503,53.2175,158.7472,89.594,270.5224,2.6801e-05,1.39e-06,0.0,0 STARLINK-4797,1 53852U 22114AL  24187.17341571  .00000139  00000-0  26801-4 0  9998,2 53852  53.2175 158.7472 0001503  89.5940 270.5224 15.08841374100033,6917.876,95.437,540.781,538.701,0.0
53852.0,STARLINK-4797,PAYLOAD,2024-07-05 07:20:29,15.08842246,0.0001517,53.217,158.1509,89.5679,270.5487,3.144e-05,2.12e-06,0.0,0 STARLINK-4797,1 53852U 22114AL  24187.30589456  .00000212  00000-0  31440-4 0  9996,2 53852  53.2170 158.1509 0001517  89.5679 270.5487 15.08842246100598,6917.874,95.437,540.788,538.689,0.0
53852.0,STARLINK-4797,PAYLOAD,2024-07-05 15:17:25,15.08841695,0.0001351,53.2163,156.6648,89.4473,270.6674,-5.445e-06,-3.75e-06,0.0,0 STARLINK-4797,1 53852U 22114AL  24187.63709519 -.00000375  00000-0 -54450-5 0  9995,2 53852  53.2163 156.6648 0001351  89.4473 270.6674 15.08841695100646,6917.875,95.437,540.675,538.806,0.0
